{
"type": "FeatureCollection",
"name": "Regiones",
"crs": { "type": "name", "properties": { "name": "urn:ogc:def:crs:EPSG::4686" } },
"features": [
{ "type": "Feature", "properties": { "ZONA_TRANS": "R6", "DeltaX": 302.934, "DeltaY": 307.805, "DeltaZ": -312.121, "FactorE": 3.74656e-06, "RX": 3.329153e-05, "RY": -4.001009e-05, "RZ": -4.507205e-05, "X0": 1558280.49, "Y0": -6167355.092, "Z0": 491954.2193, "DeltaLat": -10.023, "DeltaLon": 11.969 }, "geometry": { "type": "MultiPolygon", "coordinates": [ [ [ [ -78.995573366147426, 4.957037602627679 ], [ -78.565087942099467, 4.95618631900669 ], [ -78.565088077714563, 4.956249263966129 ], [ -78.159442467185841, 4.957037602627679 ], [ -77.618499645999577, 4.957701628310474 ], [ -77.618216210169123, 4.595995262461997 ], [ -77.6179544562101, 4.234285217532829 ], [ -77.617714332217304, 3.872571780852581 ], [ -77.617495790627345, 3.510855240298383 ], [ -77.61729878819591, 3.149135884247755 ], [ -78.157041286854906, 3.148714698413983 ], [ -78.156690360407538, 2.787041272833619 ], [ -78.548757865827724, 2.78661248700223 ], [ -78.548757964107494, 2.786540980030338 ], [ -78.998325472925728, 2.787041272833619 ], [ -79.537892547356535, 2.787414001532341 ], [ -80.077507916666661, 2.787538262805981 ], [ -80.617123285976788, 2.787414001532341 ], [ -81.156690360407481, 2.787041272833619 ], [ -81.548757865827781, 2.78661248700223 ], [ -81.548757964107551, 2.786540980030338 ], [ -81.998325472925785, 2.787041272833619 ], [ -82.537892547356478, 2.787414001532341 ], [ -83.077507916666605, 2.787538262805981 ], [ -83.617123285976788, 2.787414001532341 ], [ -84.156690360407538, 2.787041272833619 ], [ -84.5613049318859, 2.786598764864834 ], [ -85.010788217645029, 2.78594341167161 ], [ -85.011416549367141, 3.14747410842557 ], [ -85.012121855475982, 3.509002152391645 ], [ -84.562328821652159, 3.509827961729911 ], [ -84.562929518460692, 3.871438368306713 ], [ -84.563589537657776, 4.233045584815102 ], [ -84.564309009886131, 4.594649315211086 ], [ -84.565088077714506, 4.956249263966129 ], [ -84.159442467185784, 4.957037602627679 ], [ -83.618499645999634, 4.957701628310474 ], [ -83.077507916666605, 4.957923003036001 ], [ -82.536516187333632, 4.957701628310474 ], [ -81.995573366147482, 4.957037602627679 ], [ -81.56508794209941, 4.95618631900669 ], [ -81.565088077714506, 4.956249263966129 ], [ -81.159442467185784, 4.957037602627679 ], [ -80.618499645999634, 4.957701628310474 ], [ -80.077507916666661, 4.957923003036001 ], [ -79.536516187333689, 4.957701628310474 ], [ -78.995573366147426, 4.957037602627679 ] ] ] ] } },
{ "type": "Feature", "properties": { "ZONA_TRANS": "R7", "DeltaX": 295.282, "DeltaY": 321.293, "DeltaZ": -311.001, "FactorE": 6.32574e-06, "RX": -4.698084e-05, "RY": 5.00313e-06, "RZ": -9.578653e-05, "X0": 1564000.62, "Y0": -6180004.879, "Z0": 243257.9554, "DeltaLat": -10.038, "DeltaLon": 11.731 }, "geometry": { "type": "MultiPolygon", "coordinates": [ [ [ [ -78.998325472925728, 2.787041272833619 ], [ -78.998633477871977, 2.425365581541712 ], [ -78.998898622093577, 2.063687917828815 ], [ -79.538179185564218, 2.063963813425687 ], [ -79.538290378114766, 1.702236087549466 ], [ -79.53838018360409, 1.340506993944985 ], [ -80.077507916666661, 1.340566718152559 ], [ -80.616635649729233, 1.340506993944985 ], [ -81.155715304292698, 1.340327847787876 ], [ -81.550138859035712, 1.340120332804702 ], [ -81.550138882203782, 1.34008738989462 ], [ -81.999300529040624, 1.340327847787876 ], [ -82.538380183604033, 1.340506993944985 ], [ -83.077507916666605, 1.340566718152559 ], [ -83.616635649729119, 1.340506993944985 ], [ -84.155715304292642, 1.340327847787876 ], [ -84.559964582910652, 1.340115163273424 ], [ -84.560211428275124, 1.701738469962152 ], [ -84.560517059477604, 2.063360371227589 ], [ -85.009761996771942, 2.062875275433157 ], [ -85.010236736352283, 2.424410365957044 ], [ -85.010788217645029, 2.78594341167161 ], [ -84.5613049318859, 2.786598764864834 ], [ -84.156690360407538, 2.787041272833619 ], [ -83.617123285976788, 2.787414001532341 ], [ -83.077507916666605, 2.787538262805981 ], [ -82.537892547356478, 2.787414001532341 ], [ -81.998325472925785, 2.787041272833619 ], [ -81.561304880577325, 2.786554942631881 ], [ -81.5613049318859, 2.786598764864834 ], [ -81.156690360407481, 2.787041272833619 ], [ -80.617123285976788, 2.787414001532341 ], [ -80.077507916666661, 2.787538262805981 ], [ -79.537892547356535, 2.787414001532341 ], [ -78.998325472925728, 2.787041272833619 ] ] ] ] } },
{ "type": "Feature", "properties": { "ZONA_TRANS": "R8", "DeltaX": 302.529, "DeltaY": 317.979, "DeltaZ": -319.08, "FactorE": -2.19998e-06, "RX": 1.361566e-05, "RY": -2.17446e-06, "RZ": -1.362418e-05, "X0": 1738580.767, "Y0": -6120500.388, "Z0": 491473.3064, "DeltaLat": -10.249, "DeltaLon": 12.272 }, "geometry": { "type": "MultiPolygon", "coordinates": [ [ [ [ -74.077507916666661, -1.191663636247025 ], [ -74.077507916666661, -0.829916987892366 ], [ -74.077507916666661, -0.46816967523672 ], [ -74.077507916666661, -0.106421987801621 ], [ -74.077507916666661, 0.255325784830135 ], [ -74.077507916666661, 0.617073353061831 ], [ -74.077507916666661, 0.978820427330155 ], [ -74.077507916666661, 1.340566718152533 ], [ -74.077507916666661, 1.702311936174447 ], [ -74.077507916666661, 2.064055792216721 ], [ -74.077507916666661, 2.42579799732278 ], [ -74.077507916666661, 2.787538262805874 ], [ -74.617123285976803, 2.787414001532339 ], [ -74.617298788195939, 3.14913588424775 ], [ -74.617495790627359, 3.510855240298413 ], [ -74.617714332217332, 3.872571780852591 ], [ -74.617954456210171, 4.234285217532739 ], [ -74.618216210169138, 4.595995262461975 ], [ -74.61849964599962, 4.957701628310464 ], [ -74.077507916666661, 4.957923003035947 ], [ -73.536516187333703, 4.957701628310464 ], [ -72.995573366147454, 4.957037602627673 ], [ -72.565087942099538, 4.956186319006572 ], [ -72.565088077714577, 4.956249263966115 ], [ -72.159442467185869, 4.957037602627673 ], [ -71.618499645999634, 4.957701628310464 ], [ -71.618804819974315, 5.319404028341699 ], [ -71.619131792760726, 5.68110217645867 ], [ -71.619480629450749, 6.042795787249911 ], [ -71.619851399592534, 6.404484576035425 ], [ -71.620244177224592, 6.766168258912469 ], [ -71.620659040912216, 7.127846552801183 ], [ -71.077507916666661, 7.128165649832565 ], [ -70.534356792421107, 7.127846552801183 ], [ -69.991255546037962, 7.126889404343613 ], [ -69.538745244029258, 7.125604680275424 ], [ -69.539920070627659, 6.764041191994382 ], [ -69.541031730087369, 6.402675013664988 ], [ -69.162145368423438, 6.403625388611998 ], [ -68.61985139959252, 6.404484576035425 ], [ -68.077507916666661, 6.404771014448152 ], [ -67.535164433740803, 6.404484576035425 ], [ -66.992870464909885, 6.403625388611998 ], [ -66.993611838628951, 6.041985479549647 ], [ -66.99430935554642, 5.680340686413206 ], [ -67.535884040572597, 5.68110217645867 ], [ -67.536211013359022, 5.319404028341699 ], [ -67.536516187333703, 4.957701628310464 ], [ -67.536799623164185, 4.595995262461975 ], [ -67.537061377123152, 4.234285217532739 ], [ -67.537301501115991, 3.872571780852591 ], [ -66.997143643340138, 3.87205358108131 ], [ -66.997580629233212, 3.510385565343772 ], [ -66.997974546478375, 3.148714698413875 ], [ -66.998325472925785, 2.78704127283351 ], [ -66.998633477872005, 2.425365581541618 ], [ -66.998898622093577, 2.063687917828781 ], [ -66.549569683495179, 2.063317598601276 ], [ -66.549884565419546, 1.701703198295052 ], [ -66.550138882203782, 1.340087389894593 ], [ -66.550332683927493, 0.978470472395335 ], [ -66.999437370962511, 0.978646029389558 ], [ -67.538448619730033, 0.978776823015146 ], [ -67.538380183604119, 1.340506993944999 ], [ -67.538290378114752, 1.702236087549474 ], [ -68.077507916666661, 1.702311936174447 ], [ -68.616725455218571, 1.702236087549474 ], [ -69.155894875457008, 1.702008575291745 ], [ -69.549884528698783, 1.701745368889788 ], [ -69.549884565419546, 1.701703198295052 ], [ -69.550138859035727, 1.340120332804693 ], [ -69.155715304292727, 1.340327847787875 ], [ -69.155578462370812, 0.978646029389558 ], [ -68.616567213603304, 0.978776823015146 ], [ -68.616520133359174, 0.617045865336628 ], [ -69.155484322742481, 0.616963414338561 ], [ -69.155432866873213, 0.255280297000351 ], [ -69.550538881632249, 0.255240701400153 ], [ -69.550538882880588, 0.255234506855032 ], [ -69.999582966460125, 0.255280297000351 ], [ -69.999591748699501, -0.10640302818161 ], [ -69.550551320687305, -0.106383942554486 ], [ -69.550551320344752, -0.106386523459971 ], [ -69.155424084633836, -0.10640302818161 ], [ -69.155457974295658, -0.468086266731587 ], [ -69.155534542529693, -0.829769124187293 ], [ -69.155653804409724, -1.191451306145624 ], [ -69.155815783419712, -1.553132518308361 ], [ -69.15602051146503, -1.914812466527867 ], [ -69.156268028887879, -2.276490856852744 ], [ -69.156558384486672, -2.638167395573451 ], [ -69.548944786418048, -2.637761166193592 ], [ -69.548472909370858, -2.9993032326291 ], [ -69.547940100998261, -3.360910122325746 ], [ -69.547346343924914, -3.722514235357107 ], [ -69.54669152079488, -4.084115274449442 ], [ -69.545975502056052, -4.445712942781173 ], [ -69.996360795016869, -4.446512057946501 ], [ -70.536909989693058, -4.447107415941713 ], [ -70.537162834216886, -4.085395940062475 ], [ -71.077507916666661, -4.085578223332996 ], [ -71.077507916666661, -3.723847289207577 ], [ -71.077507916666661, -3.362113382486462 ], [ -70.537603739456699, -3.361963456439521 ], [ -70.537791887428227, -3.000243025354526 ], [ -70.537958549974462, -2.638520186615733 ], [ -71.077507916666661, -2.638637801018429 ], [ -71.617057283358875, -2.638520186615733 ], [ -72.156558384486672, -2.638167395573451 ], [ -72.561123512843494, -2.637748557814558 ], [ -72.561123466635905, -2.637706693287189 ], [ -72.998457448846651, -2.638167395573451 ], [ -73.537958549974448, -2.638520186615733 ], [ -73.538103760006152, -2.276795229616746 ], [ -73.538227546178007, -1.915068444092943 ], [ -73.538329932902499, -1.553340120074743 ], [ -74.077507916666661, -1.553409330887735 ], [ -74.077507916666661, -1.191663636247025 ] ] ] ] } },
{ "type": "Feature", "properties": { "ZONA_TRANS": "R7", "DeltaX": 295.282, "DeltaY": 321.293, "DeltaZ": -311.001, "FactorE": 6.32574e-06, "RX": -4.698084e-05, "RY": 5.00313e-06, "RZ": -9.578653e-05, "X0": 1564000.62, "Y0": -6180004.879, "Z0": 243257.9554, "DeltaLat": -10.038, "DeltaLon": 11.731 }, "geometry": { "type": "MultiPolygon", "coordinates": [ [ [ [ -74.617123285976803, 2.787414001532339 ], [ -74.077507916666661, 2.787538262805874 ], [ -74.077507916666661, 2.42579799732278 ], [ -74.077507916666661, 2.064055792216721 ], [ -74.077507916666661, 1.702311936174447 ], [ -74.077507916666661, 1.340566718152533 ], [ -74.077507916666661, 0.978820427330155 ], [ -74.077507916666661, 0.617073353061831 ], [ -74.077507916666661, 0.255325784830135 ], [ -74.077507916666661, -0.106421987801621 ], [ -74.077507916666661, -0.46816967523672 ], [ -74.077507916666661, -0.829916987892366 ], [ -74.077507916666661, -1.191663636247025 ], [ -74.616604892971651, -1.191610547840824 ], [ -74.616545248816479, -0.829880017871285 ], [ -74.616506956216952, -0.468148820800783 ], [ -75.155457974295658, -0.468086266731587 ], [ -75.559610847246759, -0.46801200176856 ], [ -75.559564261216394, -0.106386146983568 ], [ -75.559564261277202, -0.10638432563274 ], [ -75.999591748699501, -0.10640302818161 ], [ -76.538525825701257, -0.10641724737163 ], [ -77.077507916666661, -0.106421987801621 ], [ -77.077507916666661, 0.255325784830135 ], [ -77.616494399724544, 0.255314411613126 ], [ -77.616520133359174, 0.617045865336628 ], [ -78.155484322742481, 0.616963414338561 ], [ -78.559647066832753, 0.616865527496677 ], [ -78.559776468838336, 0.978474164012326 ], [ -78.999437370962511, 0.978646029389558 ], [ -78.99930052904061, 1.340327847787875 ], [ -79.538380183604133, 1.340506993944999 ], [ -79.538290378114752, 1.702236087549474 ], [ -79.538179185564246, 2.063963813425707 ], [ -78.998898622093591, 2.063687917828781 ], [ -78.998633477872019, 2.425365581541618 ], [ -78.998325472925785, 2.78704127283351 ], [ -78.56130488057731, 2.786554942631824 ], [ -78.5613049318859, 2.786598764864836 ], [ -78.156690360407538, 2.78704127283351 ], [ -77.617123285976803, 2.787414001532339 ], [ -77.077507916666661, 2.787538262805874 ], [ -76.53789254735652, 2.787414001532339 ], [ -75.998325472925785, 2.78704127283351 ], [ -75.561304880577296, 2.786554942631824 ], [ -75.561304931885886, 2.786598764864836 ], [ -75.156690360407538, 2.78704127283351 ], [ -74.617123285976803, 2.787414001532339 ] ] ] ] } },
{ "type": "Feature", "properties": { "ZONA_TRANS": "R6", "DeltaX": 302.934, "DeltaY": 307.805, "DeltaZ": -312.121, "FactorE": 3.74656e-06, "RX": 3.329153e-05, "RY": -4.001009e-05, "RZ": -4.507205e-05, "X0": 1558280.49, "Y0": -6167355.092, "Z0": 491954.2193, "DeltaLat": -10.023, "DeltaLon": 11.969 }, "geometry": { "type": "MultiPolygon", "coordinates": [ [ [ [ -75.159442467185869, 4.957037602627673 ], [ -74.61849964599962, 4.957701628310464 ], [ -74.618216210169138, 4.595995262461975 ], [ -74.617954456210171, 4.234285217532739 ], [ -74.617714332217332, 3.872571780852591 ], [ -74.617495790627359, 3.510855240298413 ], [ -74.617298788195939, 3.14913588424775 ], [ -74.617123285976803, 2.787414001532339 ], [ -75.156690360407538, 2.78704127283351 ], [ -75.548757865827795, 2.786612487002162 ], [ -75.548757964107565, 2.786540980030235 ], [ -75.998325472925785, 2.78704127283351 ], [ -76.53789254735652, 2.787414001532339 ], [ -77.077507916666661, 2.787538262805874 ], [ -77.617123285976803, 2.787414001532339 ], [ -78.156690360407538, 2.78704127283351 ], [ -78.157041286854948, 3.148714698413875 ], [ -77.617298788195953, 3.14913588424775 ], [ -77.617495790627359, 3.510855240298413 ], [ -77.617714332217332, 3.872571780852591 ], [ -77.617954456210171, 4.234285217532739 ], [ -77.618216210169138, 4.595995262461975 ], [ -77.61849964599962, 4.957701628310464 ], [ -77.077507916666661, 4.957923003035947 ], [ -76.536516187333703, 4.957701628310464 ], [ -75.995573366147454, 4.957037602627673 ], [ -75.565087942099538, 4.956186319006572 ], [ -75.565088077714577, 4.956249263966115 ], [ -75.159442467185869, 4.957037602627673 ] ] ] ] } },
{ "type": "Feature", "properties": { "ZONA_TRANS": "R4", "DeltaX": 306.666, "DeltaY": 315.063, "DeltaZ": -318.837, "FactorE": -1.389912e-05, "RX": -7.992173e-05, "RY": -8.0907e-06, "RZ": 0.0001051699, "X0": 1845222.398, "Y0": -6058604.945, "Z0": 769132.398, "DeltaLat": -10.085, "DeltaLon": 12.561 }, "geometry": { "type": "MultiPolygon", "coordinates": [ [ [ [ -74.077507916666661, 4.957923003035947 ], [ -74.077507916666661, 5.319641640484165 ], [ -74.077507916666661, 5.681356044175457 ], [ -74.077507916666661, 6.043065929965556 ], [ -74.077507916666661, 6.404771014448152 ], [ -74.077507916666661, 6.766471015001114 ], [ -74.077507916666661, 7.128165649832565 ], [ -74.077507916666661, 7.489854638026823 ], [ -74.077507916666661, 7.851537699590168 ], [ -74.077507916666661, 8.213214555496458 ], [ -74.077507916666661, 8.574884927732567 ], [ -74.077507916666661, 8.936548539343628 ], [ -74.077507916666661, 9.298205114478112 ], [ -74.077507916666661, 9.659854378432691 ], [ -73.530826767963219, 9.659420133384605 ], [ -72.98419710229058, 9.658117593834977 ], [ -72.985340950247334, 9.296534484550032 ], [ -72.530368787393655, 9.29485275922398 ], [ -72.531924272949368, 8.933328671217184 ], [ -72.533414276362777, 8.57211962236136 ], [ -72.167523529146067, 8.573346222350963 ], [ -72.166515587221767, 8.211741630764704 ], [ -72.16555252741253, 7.850130441539174 ], [ -72.164634155660863, 7.488512937973631 ], [ -71.621096073786177, 7.489519175490096 ], [ -71.620659040912216, 7.127846552801183 ], [ -71.620244177224592, 6.766168258912469 ], [ -71.619851399592534, 6.404484576035425 ], [ -71.619480629450749, 6.042795787249911 ], [ -71.619131792760726, 5.68110217645867 ], [ -71.618804819974315, 5.319404028341699 ], [ -71.618499645999634, 4.957701628310464 ], [ -72.159442467185869, 4.957037602627673 ], [ -72.544859972164289, 4.956288575614612 ], [ -72.544860312161958, 4.956146318929687 ], [ -72.995573366147454, 4.957037602627673 ], [ -73.536516187333703, 4.957701628310464 ], [ -74.077507916666661, 4.957923003035947 ] ] ] ] } },
{ "type": "Feature", "properties": { "ZONA_TRANS": "R5", "DeltaX": 307.871, "DeltaY": 305.803, "DeltaZ": -311.992, "FactorE": 2.18166e-06, "RX": -4.216368e-05, "RY": -2.030416e-05, "RZ": -6.209624e-05, "X0": 1594396.206, "Y0": -6143812.398, "Z0": 648855.829, "DeltaLat": -9.946, "DeltaLon": 12.159 }, "geometry": { "type": "MultiPolygon", "coordinates": [ [ [ [ -75.573487001845706, 7.848830350171468 ], [ -75.573487166320845, 7.848877456046839 ], [ -75.16555252741253, 7.850130441539174 ], [ -74.621555363583724, 7.851185845681422 ], [ -74.077507916666661, 7.851537699590168 ], [ -74.077507916666661, 7.489854638026823 ], [ -74.077507916666661, 7.128165649832565 ], [ -74.077507916666661, 6.766471015001114 ], [ -74.077507916666661, 6.404771014448152 ], [ -74.077507916666661, 6.043065929965556 ], [ -74.077507916666661, 5.681356044175457 ], [ -74.077507916666661, 5.319641640484165 ], [ -74.077507916666661, 4.957923003035947 ], [ -74.61849964599962, 4.957701628310464 ], [ -75.159442467185869, 4.957037602627673 ], [ -75.544859972164289, 4.956288575614612 ], [ -75.544860312161958, 4.956146318929687 ], [ -75.995573366147454, 4.957037602627673 ], [ -76.536516187333703, 4.957701628310464 ], [ -77.077507916666661, 4.957923003035947 ], [ -77.61849964599962, 4.957701628310464 ], [ -77.618804819974301, 5.319404028341699 ], [ -77.619131792760726, 5.68110217645867 ], [ -77.619480629450734, 6.042795787249911 ], [ -77.61985139959252, 6.404484576035425 ], [ -77.620244177224592, 6.766168258912469 ], [ -78.162930746939281, 6.765260125857353 ], [ -78.163760287295375, 7.126889404343613 ], [ -78.164634155660863, 7.488512937973631 ], [ -78.165552527412544, 7.850130441539174 ], [ -77.621555363583724, 7.851185845681422 ], [ -77.077507916666661, 7.851537699590168 ], [ -76.533460469749599, 7.851185845681422 ], [ -75.989463305920779, 7.850130441539174 ], [ -75.573487001845706, 7.848830350171468 ] ] ] ] } },
{ "type": "Feature", "properties": { "ZONA_TRANS": "R2", "DeltaX": 308.833, "DeltaY": 282.519, "DeltaZ": -314.571, "FactorE": -1.356561e-05, "RX": -4.471845e-05, "RY": 1.175087e-05, "RZ": -4.027981e-05, "X0": 1625036.59, "Y0": -6054644.061, "Z0": 1172969.151, "DeltaLat": -9.879, "DeltaLon": 12.19 }, "geometry": { "type": "MultiPolygon", "coordinates": [ [ [ [ -75.584060100782295, 10.379620656268736 ], [ -75.58582203840075, 10.741095657347424 ], [ -75.587648032282985, 11.102586810458041 ], [ -75.175854140780956, 11.104370057371296 ], [ -74.626707350396558, 11.105872110947127 ], [ -74.627395082701867, 11.46746401783663 ], [ -74.077507916666661, 11.467981501873886 ], [ -73.527620750631442, 11.46746401783663 ], [ -73.52690947803238, 11.829046951031462 ], [ -72.976364332838372, 11.827444447174768 ], [ -72.977786547028288, 11.465911800432544 ], [ -72.979161692552367, 11.104370057371296 ], [ -72.98049005291837, 10.742819490579834 ], [ -72.981771901188182, 10.381260374005057 ], [ -72.983007500117623, 10.019692982910559 ], [ -72.98419710229058, 9.658117593834977 ], [ -73.530826767963219, 9.659420133384605 ], [ -74.077507916666661, 9.659854378432691 ], [ -74.077507916666661, 9.298205114478112 ], [ -74.623617010486768, 9.297787410018124 ], [ -75.169674883085989, 9.296534484550032 ], [ -75.530367122855566, 9.295224225450525 ], [ -75.53036878739367, 9.29485275922398 ], [ -75.985340950247334, 9.296534484550032 ], [ -76.531398822846555, 9.297787410018124 ], [ -76.530826767963234, 9.659420133384605 ], [ -75.98419710229058, 9.658117593834977 ], [ -75.983007500117637, 10.019692982910559 ], [ -75.981771901188182, 10.381260374005057 ], [ -75.584060100782295, 10.379620656268736 ] ] ] ] } },
{ "type": "Feature", "properties": { "ZONA_TRANS": "R1", "DeltaX": 300.449, "DeltaY": 293.757, "DeltaZ": -317.306, "FactorE": -2.081615e-05, "RX": 6.018581e-05, "RY": -1.450002e-05, "RZ": -0.0001892455, "X0": 1891881.173, "Y0": -5961263.267, "Z0": 1248403.057, "DeltaLat": -9.866, "DeltaLon": 12.405 }, "geometry": { "type": "MultiPolygon", "coordinates": [ [ [ [ -72.591493887375634, 11.825639744803292 ], [ -72.59351344911984, 12.187005375486098 ], [ -72.180121077450352, 12.188967726408324 ], [ -72.181638322014649, 12.550481368383544 ], [ -71.629600115297208, 12.552184830346103 ], [ -71.077507916666661, 12.55275273726923 ], [ -71.077507916666661, 12.191171699653061 ], [ -71.077507916666661, 11.82958119987836 ], [ -71.077507916666661, 11.467981501873886 ], [ -71.627395082701881, 11.46746401783663 ], [ -71.626707350396558, 11.105872110947127 ], [ -72.175854140780956, 11.104370057371296 ], [ -72.174525780414953, 10.742819490579834 ], [ -72.523496271361751, 10.741356878368455 ], [ -72.523498802341237, 10.740870551503891 ], [ -72.52531419180491, 10.379378453978566 ], [ -72.527064083136025, 10.017877934480117 ], [ -72.528748833886965, 9.65636927512748 ], [ -72.98419710229058, 9.658117593834977 ], [ -72.983007500117623, 10.019692982910559 ], [ -72.981771901188182, 10.381260374005057 ], [ -72.98049005291837, 10.742819490579834 ], [ -72.979161692552367, 11.104370057371296 ], [ -72.977786547028288, 11.465911800432544 ], [ -72.976364332838372, 11.827444447174768 ], [ -72.591493887375634, 11.825639744803292 ] ], [ [ -72.523498802341237, 10.740870551503891 ], [ -72.581010601185653, 10.741115823140829 ], [ -72.58101060118571, 10.741115823140829 ], [ -72.523498802341237, 10.740870551503891 ] ] ] ] } },
{ "type": "Feature", "properties": { "ZONA_TRANS": "R3", "DeltaX": 311.118, "DeltaY": 289.167, "DeltaZ": -310.641, "FactorE": -5.77188e-06, "RX": -8.358815e-05, "RY": -3.057474e-05, "RZ": 7.57304e-06, "X0": 1555622.801, "Y0": -6105353.313, "Z0": 991255.656, "DeltaLat": -9.838, "DeltaLon": 12.199 }, "geometry": { "type": "MultiPolygon", "coordinates": [ [ [ [ -74.623617010486768, 9.297787410018124 ], [ -74.077507916666661, 9.298205114478112 ], [ -74.077507916666661, 8.936548539343628 ], [ -74.077507916666661, 8.574884927732567 ], [ -74.077507916666661, 8.213214555496458 ], [ -74.077507916666661, 7.851537699590168 ], [ -74.621555363583724, 7.851185845681422 ], [ -75.16555252741253, 7.850130441539174 ], [ -75.536205958393666, 7.8489919665792 ], [ -75.536207007636477, 7.848713835364772 ], [ -75.989463305920779, 7.850130441539174 ], [ -76.533460469749599, 7.851185845681422 ], [ -77.077507916666661, 7.851537699590168 ], [ -77.621555363583724, 7.851185845681422 ], [ -77.622037002692167, 8.212846283036232 ], [ -77.62254108819468, 8.574500208219421 ], [ -77.623067721918687, 8.936147342944487 ], [ -77.077507916666661, 8.936548539343628 ], [ -76.531948111414636, 8.936147342944487 ], [ -76.531398822846555, 9.297787410018124 ], [ -75.985340950247334, 9.296534484550032 ], [ -75.579153816024728, 9.295033084582055 ], [ -75.579153874143259, 9.295047001552248 ], [ -75.169674883085989, 9.296534484550032 ], [ -74.623617010486768, 9.297787410018124 ] ] ] ] } },
{ "type": "Feature", "properties": { "ZONA_TRANS": "R5", "DeltaX": 307.871, "DeltaY": 305.803, "DeltaZ": -311.992, "FactorE": 2.18166e-06, "RX": -4.216368e-05, "RY": -2.030416e-05, "RZ": -6.209624e-05, "X0": 1594396.206, "Y0": -6143812.398, "Z0": 648855.829, "DeltaLat": -9.946, "DeltaLon": 12.159 }, "geometry": { "type": "MultiPolygon", "coordinates": [ [ [ [ -84.160052678651454, 5.318691297702075 ], [ -83.618804819974301, 5.319404028341699 ], [ -83.077507916666661, 5.319641640484165 ], [ -82.536211013359008, 5.319404028341699 ], [ -81.994963154681869, 5.318691297702075 ], [ -81.565926747304445, 5.317781162782902 ], [ -81.565926895707634, 5.317845136111023 ], [ -81.160052678651454, 5.318691297702075 ], [ -80.618804819974315, 5.319404028341699 ], [ -80.077507916666661, 5.319641640484165 ], [ -80.077507916666661, 5.681356044175457 ], [ -79.535884040572597, 5.68110217645867 ], [ -79.535535203882588, 6.042795787249911 ], [ -79.535164433740803, 6.404484576035425 ], [ -78.992870464909899, 6.403625388611998 ], [ -78.992085086394056, 6.765260125857353 ], [ -78.569883005644044, 6.764121965240546 ], [ -78.569883184841615, 6.764181981205032 ], [ -78.571023497575354, 7.125753068363936 ], [ -78.163760287295375, 7.126889404343613 ], [ -78.162930746939281, 6.765260125857353 ], [ -77.620244177224592, 6.766168258912469 ], [ -77.61985139959252, 6.404484576035425 ], [ -77.619480629450734, 6.042795787249911 ], [ -77.619131792760726, 5.68110217645867 ], [ -77.618804819974301, 5.319404028341699 ], [ -77.61849964599962, 4.957701628310464 ], [ -78.159442467185869, 4.957037602627673 ], [ -78.544859972164303, 4.956288575614612 ], [ -78.544860312161973, 4.956146318929687 ], [ -78.995573366147468, 4.957037602627673 ], [ -79.536516187333703, 4.957701628310464 ], [ -80.077507916666661, 4.957923003035947 ], [ -80.61849964599962, 4.957701628310464 ], [ -81.159442467185869, 4.957037602627673 ], [ -81.544859972164289, 4.956288575614612 ], [ -81.544860312161958, 4.956146318929687 ], [ -81.995573366147454, 4.957037602627673 ], [ -82.536516187333703, 4.957701628310464 ], [ -83.077507916666661, 4.957923003035947 ], [ -83.61849964599962, 4.957701628310464 ], [ -84.159442467185869, 4.957037602627673 ], [ -84.565088077714577, 4.956249263966115 ], [ -84.565926895707619, 5.317845136111023 ], [ -84.160052678651454, 5.318691297702075 ] ] ] ] } },
{ "type": "Feature", "properties": { "ZONA_TRANS": "R1", "DeltaX": 300.449, "DeltaY": 293.757, "DeltaZ": -317.306, "FactorE": -2.081615e-05, "RX": 6.018581e-05, "RY": -1.450002e-05, "RZ": -0.0001892455, "X0": 1891881.173, "Y0": -5961263.267, "Z0": 1248403.057, "DeltaLat": -9.866, "DeltaLon": 12.405 }, "geometry": { "type": "MultiPolygon", "coordinates": [ [ [ [ -69.959483262879758, 15.442211699875974 ], [ -69.580828077756649, 15.439905753231097 ], [ -69.19553257045358, 15.442211699875974 ], [ -69.193621666157398, 15.08078468095113 ], [ -69.191761275365877, 14.719345923398269 ], [ -69.499082693745748, 14.717590681459109 ], [ -69.499089563872971, 14.716648391727512 ], [ -69.501653295667495, 14.355267177762519 ], [ -69.504146600014067, 13.993874527853613 ], [ -69.966825375032485, 13.99643422136467 ], [ -69.968536559014652, 13.634961795709936 ], [ -69.970198745315386, 13.273478669002721 ], [ -69.971812283400155, 12.911985104831208 ], [ -70.524632920162801, 12.913739247223354 ], [ -70.525415718036129, 12.552184830346103 ], [ -70.526174518004197, 12.190620643662792 ], [ -71.077507916666661, 12.191171699653061 ], [ -71.077507916666661, 12.55275273726923 ], [ -71.629600115297208, 12.552184830346103 ], [ -72.181638322014649, 12.550481368383544 ], [ -72.180121077450352, 12.188967726408324 ], [ -72.515570881204738, 12.18737536458244 ], [ -72.515574604138664, 12.186749123172945 ], [ -72.517655852513144, 11.825293509652756 ], [ -72.976364332838372, 11.827444447174768 ], [ -72.974894755882971, 12.188967726408324 ], [ -72.973377511318674, 12.550481368383544 ], [ -72.971812283400155, 12.911985104831208 ], [ -72.970198745315372, 13.273478669002721 ], [ -72.968536559014652, 13.634961795709936 ], [ -72.966825375032471, 13.99643422136467 ], [ -72.9650648323029, 14.357895684017839 ], [ -72.963254557967431, 14.719345923398269 ], [ -72.961394167175925, 15.08078468095113 ], [ -72.580844681441263, 15.078520094576964 ], [ -72.193621666157398, 15.08078468095113 ], [ -71.635593211225611, 15.082846009339514 ], [ -71.077507916666661, 15.083533224554005 ], [ -71.077507916666661, 15.445029257331857 ], [ -70.518466939530583, 15.444324786494825 ], [ -69.959483262879758, 15.442211699875974 ] ] ] ] } },
{ "type": "Feature", "properties": { "ZONA_TRANS": "R2", "DeltaX": 308.833, "DeltaY": 282.519, "DeltaZ": -314.571, "FactorE": -1.356561e-05, "RX": -4.471845e-05, "RY": 1.175087e-05, "RZ": -4.027981e-05, "X0": 1625036.59, "Y0": -6054644.061, "Z0": 1172969.151, "DeltaLat": -9.879, "DeltaLon": 12.19 }, "geometry": { "type": "MultiPolygon", "coordinates": [ [ [ [ -74.077507916666661, 15.083533224554005 ], [ -73.519422622107712, 15.082846009339514 ], [ -72.961394167175925, 15.08078468095113 ], [ -72.963254557967431, 14.719345923398269 ], [ -72.9650648323029, 14.357895684017839 ], [ -72.966825375032471, 13.99643422136467 ], [ -72.968536559014652, 13.634961795709936 ], [ -72.970198745315372, 13.273478669002721 ], [ -72.971812283400155, 12.911985104831208 ], [ -72.973377511318674, 12.550481368383544 ], [ -72.974894755882971, 12.188967726408324 ], [ -72.976364332838372, 11.827444447174768 ], [ -73.52690947803238, 11.829046951031462 ], [ -73.527620750631442, 11.46746401783663 ], [ -74.077507916666661, 11.467981501873886 ], [ -74.627395082701867, 11.46746401783663 ], [ -74.626707350396558, 11.105872110947127 ], [ -75.175854140780956, 11.104370057371296 ], [ -75.521614747562495, 11.102872763342676 ], [ -75.521617542794502, 11.10235394616142 ], [ -75.523498802341237, 10.740870551503891 ], [ -75.525314191804924, 10.379378453978566 ], [ -75.981771901188182, 10.381260374005057 ], [ -75.983007500117637, 10.019692982910559 ], [ -75.98419710229058, 9.658117593834977 ], [ -76.530826767963234, 9.659420133384605 ], [ -76.531398822846555, 9.297787410018124 ], [ -76.531948111414636, 8.936147342944487 ], [ -77.077507916666661, 8.936548539343628 ], [ -77.623067721918687, 8.936147342944487 ], [ -77.623617010486768, 9.297787410018124 ], [ -77.624189065370103, 9.659420133384605 ], [ -77.624784002944565, 10.021045238169963 ], [ -77.625401944549452, 10.38266245072592 ], [ -77.626043016548977, 10.744271498673623 ], [ -77.626707350396558, 11.105872110947127 ], [ -77.627395082701867, 11.46746401783663 ], [ -78.177229286305021, 11.465911800432544 ], [ -78.178651500494951, 11.827444447174768 ], [ -78.180121077450352, 12.188967726408324 ], [ -78.515570881204738, 12.18737536458244 ], [ -78.515574604138664, 12.186749123172945 ], [ -78.580961985461343, 12.187064956595895 ], [ -78.59351344911984, 12.187005375486098 ], [ -78.593514142748433, 12.187125585890435 ], [ -78.974894755882971, 12.188967726408324 ], [ -78.976364332838372, 11.827444447174768 ], [ -79.52690947803238, 11.829046951031462 ], [ -79.527620750631456, 11.46746401783663 ], [ -79.528308482936779, 11.105872110947127 ], [ -79.528972816784346, 10.744271498673623 ], [ -80.077507916666661, 10.744755574343149 ], [ -80.626043016548991, 10.744271498673623 ], [ -81.174525780414953, 10.742819490579834 ], [ -81.523496271361751, 10.741356878368455 ], [ -81.523498802341237, 10.740870551503891 ], [ -81.58101060118571, 10.741115823140829 ], [ -81.58582203840075, 10.741095657347424 ], [ -81.585822243917704, 10.741136343442975 ], [ -81.98049005291837, 10.742819490579834 ], [ -82.528972816784346, 10.744271498673623 ], [ -82.528308482936765, 11.105872110947127 ], [ -82.527620750631442, 11.46746401783663 ], [ -82.52690947803238, 11.829046951031462 ], [ -82.526174518004183, 12.190620643662792 ], [ -82.525415718036115, 12.552184830346103 ], [ -82.524632920162787, 12.913739247223354 ], [ -82.523825960881865, 13.275283632004879 ], [ -82.522994671068304, 13.636817724010966 ], [ -82.522138875885304, 13.998341264213177 ], [ -82.521258394691813, 14.35985399527531 ], [ -82.520353040946446, 14.721355661594096 ], [ -82.519422622107712, 15.082846009339514 ], [ -81.961394167175925, 15.08078468095113 ], [ -81.580844681441263, 15.078520094576964 ], [ -81.193621666157398, 15.08078468095113 ], [ -80.635593211225611, 15.082846009339514 ], [ -80.636548893802754, 15.444324786494825 ], [ -80.637530044974284, 15.805791742896258 ], [ -80.638536875918433, 16.167246630272295 ], [ -80.077507916666661, 16.167985786952869 ], [ -80.077507916666661, 16.529445792479372 ], [ -79.515446229082272, 16.528689202282692 ], [ -78.953443310940784, 16.526419783982437 ], [ -78.955508263291918, 16.165029503637527 ], [ -78.580793539159288, 16.16264367745319 ], [ -78.199507570041405, 16.165029503637527 ], [ -78.197494397715985, 15.803626725164447 ], [ -78.19553257045358, 15.442211699875974 ], [ -78.493740536678757, 15.440426961548745 ], [ -78.493748621627361, 15.439375453930866 ], [ -78.496454859868464, 15.078017904856006 ], [ -78.499082693745748, 14.717590681459109 ], [ -78.191761275365877, 14.719345923398269 ], [ -78.189951001030408, 14.357895684017839 ], [ -77.63375743864151, 14.35985399527531 ], [ -77.077507916666661, 14.36050686576394 ], [ -77.077507916666661, 14.72202567722425 ], [ -76.520353040946461, 14.721355661594096 ], [ -75.963254557967446, 14.719345923398269 ], [ -75.580860846169784, 14.717123612018918 ], [ -75.191761275365877, 14.719345923398269 ], [ -75.193621666157384, 15.08078468095113 ], [ -74.635593211225597, 15.082846009339514 ], [ -74.077507916666661, 15.083533224554005 ] ] ] ] } }
]
}
