{
"type": "FeatureCollection",
"name": "Regiones",
"crs": { "type": "name", "properties": { "name": "urn:ogc:def:crs:EPSG::4218" } },
"features": [
{ "type": "Feature", "properties": { "ZONA_TRANS": "R6", "DeltaX": 302.934, "DeltaY": 307.805, "DeltaZ": -312.121, "FactorE": 3.74656e-06, "RX": 3.329153e-05, "RY": -4.001009e-05, "RZ": -4.507205e-05, "X0": 1558280.49, "Y0": -6167355.092, "Z0": 491954.2193, "DeltaLat": -10.023, "DeltaLon": 11.969 }, "geometry": { "type": "MultiPolygon", "coordinates": [ [ [ [ -78.998813081875909, 4.959836768341394 ], [ -78.5683434222654, 4.958989159399698 ], [ -78.56834355841174, 4.959052103569299 ], [ -78.162712688412782, 4.959843932504092 ], [ -77.621789326853417, 4.960512689404635 ], [ -77.621502775378502, 4.598810521718383 ], [ -77.621238006334508, 4.2371045154967 ], [ -77.620994967440922, 3.875394959113305 ], [ -77.620773610779182, 3.513682141499409 ], [ -77.620573892769741, 3.151966352096363 ], [ -78.160297238815843, 3.151541177332255 ], [ -78.159943752470213, 2.789871311134149 ], [ -78.551997243344672, 2.789439782843202 ], [ -78.551997341129237, 2.789368276579598 ], [ -79.001548645229846, 2.789865463513983 ], [ -79.54109607079846, 2.790234535412085 ], [ -80.08069157289593, 2.790355217440649 ], [ -80.620286860257167, 2.790227455422264 ], [ -81.15983364171386, 2.78985130538383 ], [ -81.551886269151325, 2.789420083467742 ], [ -81.551886366990857, 2.789348577361127 ], [ -82.001436686656632, 2.789846114560051 ], [ -82.540982939994748, 2.790215608925001 ], [ -83.08057727998289, 2.790336715682288 ], [ -83.620171415566588, 2.790209380565444 ], [ -84.159717055783446, 2.789833659511046 ], [ -84.564315422438341, 2.789388961217865 ], [ -85.013780575308616, 2.78873122897715 ], [ -85.014410803125912, 3.150256598950333 ], [ -85.01511809055684, 3.511779161356688 ], [ -84.565343291658507, 3.512607568023093 ], [ -84.56594610859878, 3.874212446449394 ], [ -84.566608335193749, 4.235813978042084 ], [ -84.567330102354404, 4.59741186575552 ], [ -84.568111552934866, 4.959005813069362 ], [ -84.162482437647327, 4.959796939499429 ], [ -83.621561434673552, 4.960464764866297 ], [ -83.080591319192351, 4.960690032706632 ], [ -82.539620995232724, 4.960472643346035 ], [ -81.998699366919567, 4.959812694046303 ], [ -81.568230656382852, 4.958964719240159 ], [ -81.568230792475546, 4.959027663272176 ], [ -81.162600821265698, 4.95981914523595 ], [ -80.62167866732338, 4.960487442200105 ], [ -80.080707389933522, 4.960713178738599 ], [ -79.539735893337053, 4.960496255067619 ], [ -78.998813081875909, 4.959836768341394 ] ] ] ] } },
{ "type": "Feature", "properties": { "ZONA_TRANS": "R7", "DeltaX": 295.282, "DeltaY": 321.293, "DeltaZ": -311.001, "FactorE": 6.32574e-06, "RX": -4.698084e-05, "RY": 5.00313e-06, "RZ": -9.578653e-05, "X0": 1564000.62, "Y0": -6180004.879, "Z0": 243257.9554, "DeltaLat": -10.038, "DeltaLon": 11.731 }, "geometry": { "type": "MultiPolygon", "coordinates": [ [ [ [ -79.001548645229846, 2.789865463513983 ], [ -79.001854242265409, 2.428193400833753 ], [ -79.00211707755021, 2.066519213508529 ], [ -79.541378099769531, 2.066791744384031 ], [ -79.541487133574307, 1.705067489426046 ], [ -79.541574877244898, 1.343341716391771 ], [ -80.080682954355993, 1.343398438498948 ], [ -80.619790818841977, 1.343335784245925 ], [ -81.158850395809651, 1.343153780749434 ], [ -81.55325912807767, 1.342944221287766 ], [ -81.553259151077782, 1.342911278721346 ], [ -82.002403785827397, 1.343149450121436 ], [ -82.541462833696201, 1.343325918907715 ], [ -83.08056975383036, 1.343383038809905 ], [ -83.619676471449282, 1.34332078397091 ], [ -84.158734911863263, 1.343139181429558 ], [ -84.562968151809315, 1.34292470367629 ], [ -84.563216598402477, 1.704543401248195 ], [ -84.563523916841987, 2.066160542835631 ], [ -85.012750817117094, 2.065673286120475 ], [ -85.013227282941358, 2.427203356301449 ], [ -85.013780575308616, 2.78873122897715 ], [ -84.564315422438341, 2.789388961217865 ], [ -84.159717055783446, 2.789833659511046 ], [ -83.620171415566588, 2.790209380565444 ], [ -83.08057727998289, 2.790336715682288 ], [ -82.540982939994748, 2.790215608925001 ], [ -82.001436686656632, 2.789846114560051 ], [ -81.564432805688185, 2.789362462339387 ], [ -81.564432857262162, 2.789406284040985 ], [ -81.15983364171386, 2.78985130538383 ], [ -80.620286860257167, 2.790227455422264 ], [ -80.08069157289593, 2.790355217440649 ], [ -79.54109607079846, 2.790234535412085 ], [ -79.001548645229846, 2.789865463513983 ] ] ] ] } },
{ "type": "Feature", "properties": { "ZONA_TRANS": "R8", "DeltaX": 302.529, "DeltaY": 317.979, "DeltaZ": -319.08, "FactorE": -2.19998e-06, "RX": 1.361566e-05, "RY": -2.17446e-06, "RZ": -1.362418e-05, "X0": 1738580.767, "Y0": -6120500.388, "Z0": 491473.3064, "DeltaLat": -10.249, "DeltaLon": 12.272 }, "geometry": { "type": "MultiPolygon", "coordinates": [ [ [ [ -74.080874573608753, -1.188786059427725 ], [ -74.080876380590425, -0.827040193770175 ], [ -74.080878289892141, -0.465293806533031 ], [ -74.080880301642893, -0.103547188425543 ], [ -74.080882415991823, 0.258199369788664 ], [ -74.080884633108269, 0.619945577339176 ], [ -74.080886953181817, 0.981691143496379 ], [ -74.080889376422405, 1.34343577761903 ], [ -74.080891903060319, 1.705179189201826 ], [ -74.080894533346324, 2.066921087922942 ], [ -74.080897267551762, 2.428661183691535 ], [ -74.080900105968638, 2.790399186695211 ], [ -74.620497858712199, 2.790270600764944 ], [ -74.620676249803878, 3.151989911051587 ], [ -74.620876244495904, 3.513706539099814 ], [ -74.621097882076612, 3.875420194967738 ], [ -74.621341206153076, 4.237130589177193 ], [ -74.621606264672181, 4.598837432760448 ], [ -74.621893109943912, 4.960540437306824 ], [ -74.080919343897961, 4.960767074179801 ], [ -73.539945339018573, 4.960551044018644 ], [ -72.999020000112495, 4.959892443773635 ], [ -72.568548315440438, 4.959045535222184 ], [ -72.568548451689509, 4.959108479684944 ], [ -72.162915665472397, 4.959900973096015 ], [ -71.621989732114329, 4.960570609879774 ], [ -71.62229870935515, 5.322270355900275 ], [ -71.622629595254949, 5.683965687323466 ], [ -71.622982455405037, 6.045656317650479 ], [ -71.623357359875612, 6.407341961124874 ], [ -71.623754383250187, 6.769022332778661 ], [ -71.624173604662019, 7.130697148478148 ], [ -71.081039508953324, 7.131022919066704 ], [ -70.537905158140958, 7.130710583588555 ], [ -69.994820426787911, 7.129760282585758 ], [ -69.542323687618648, 7.128481328803591 ], [ -69.543493903725178, 6.76692067919448 ], [ -69.544601072647723, 6.40555717268415 ], [ -69.165725885489579, 6.406512178210123 ], [ -68.62344769152331, 6.407378063583483 ], [ -68.081119725704184, 6.407671281953053 ], [ -67.538791499039718, 6.407391703508024 ], [ -66.996512522660737, 6.406539454021235 ], [ -66.997249290958422, 6.044901282325766 ], [ -66.997942321093817, 5.683258062168688 ], [ -67.539502130730696, 5.684012957898787 ], [ -67.539824791447757, 5.322316390637186 ], [ -67.540125769603122, 4.960615408838158 ], [ -67.540405125331588, 4.598910299709297 ], [ -67.540662914396961, 4.237201351108411 ], [ -67.54089918821937, 3.875488851497108 ], [ -67.000755934608932, 3.87497639390257 ], [ -67.001189133922466, 3.51330898776105 ], [ -67.001579379575389, 3.151638573786625 ], [ -67.00192674899165, 2.789965445669129 ], [ -67.002231311064904, 2.428289897504996 ], [ -67.002493126191894, 2.066612223751585 ], [ -66.553175962670551, 2.066246034959128 ], [ -66.553487592033406, 1.704631332094211 ], [ -66.553738770232698, 1.343015070566125 ], [ -66.553929547029455, 0.981397550551852 ], [ -67.003022566993735, 0.981569397982492 ], [ -67.542019584943958, 0.981695795939639 ], [ -67.541954095890702, 1.34342626195838 ], [ -67.54186734914596, 1.705155500793508 ], [ -68.081070320047402, 1.705226682239259 ], [ -68.62027304330293, 1.70514623094912 ], [ -69.159427403320592, 1.704914181556874 ], [ -69.553405896622536, 1.704647701242475 ], [ -69.553405932998146, 1.704605530711012 ], [ -69.553657323421177, 1.343023132988129 ], [ -69.159244908929253, 1.34323380612604 ], [ -69.159105251841311, 0.981552189406858 ], [ -68.620108972912604, 0.981687190767967 ], [ -68.62005914198933, 0.619956121134175 ], [ -69.159008404855626, 0.619869626893022 ], [ -69.158954349206383, 0.25818641420976 ], [ -69.554049297688721, 0.25814401408824 ], [ -69.554049298893915, 0.258137819542265 ], [ -70.003080648551361, 0.25818046270549 ], [ -70.003087001600207, -0.103502849201648 ], [ -69.554059273896129, -0.103480752159262 ], [ -69.554059273536396, -0.103483333066136 ], [ -69.158943074554003, -0.103497152932121 ], [ -69.158974578980263, -0.4651807787822 ], [ -69.159048868987441, -0.826864167596413 ], [ -69.159165959501365, -1.188547023683036 ], [ -69.1593258738787, -1.550229051448635 ], [ -69.159528643918236, -1.911909955444016 ], [ -69.159774309876255, -2.27358944041013 ], [ -69.160062920485927, -2.635267211323946 ], [ -69.552438558915071, -2.634862814323474 ], [ -69.551965091956177, -2.99640612619697 ], [ -69.551430802048415, -3.358014396517472 ], [ -69.550835672108065, -3.719620023908871 ], [ -69.550179584786562, -4.081222709862109 ], [ -69.549462410561048, -4.442822156315755 ], [ -69.999835334387242, -4.443622666270815 ], [ -70.540369465252908, -4.444219649610226 ], [ -70.540623415623287, -4.082506690481197 ], [ -71.080953168800363, -4.082690706558743 ], [ -71.080954353288831, -3.720958580596127 ], [ -71.080955643271125, -3.359223614672208 ], [ -70.541066852612644, -3.359071635663887 ], [ -70.541256426434344, -2.997350119157083 ], [ -70.541424621481099, -2.635626330120704 ], [ -71.080958539656947, -2.63574631778257 ], [ -71.620492222093731, -2.635631020803724 ], [ -72.159977405980726, -2.63528049125605 ], [ -72.564530445224904, -2.634863312870047 ], [ -72.564530399186808, -2.634821448309616 ], [ -73.001851162178582, -2.635283909726347 ], [ -73.541335747188072, -2.635638819641548 ], [ -73.541482388968419, -2.273913931554293 ], [ -73.541607710183911, -1.912187352787078 ], [ -73.541711735301561, -1.550459374571144 ], [ -74.08087286883827, -1.550531112898371 ], [ -74.080874573608753, -1.188786059427725 ] ] ] ] } },
{ "type": "Feature", "properties": { "ZONA_TRANS": "R7", "DeltaX": 295.282, "DeltaY": 321.293, "DeltaZ": -311.001, "FactorE": 6.32574e-06, "RX": -4.698084e-05, "RY": 5.00313e-06, "RZ": -9.578653e-05, "X0": 1564000.62, "Y0": -6180004.879, "Z0": 243257.9554, "DeltaLat": -10.038, "DeltaLon": 11.731 }, "geometry": { "type": "MultiPolygon", "coordinates": [ [ [ [ -74.620497858712199, 2.790270600764944 ], [ -74.080900105968638, 2.790399186695211 ], [ -74.080897267551762, 2.428661183691535 ], [ -74.080894533346324, 2.066921087922942 ], [ -74.080891903060319, 1.705179189201826 ], [ -74.080889376422405, 1.34343577761903 ], [ -74.080886953181817, 0.981691143496379 ], [ -74.080884633108269, 0.619945577339176 ], [ -74.080882415991823, 0.258199369788664 ], [ -74.080880301642893, -0.103547188425543 ], [ -74.080878289892141, -0.465293806533031 ], [ -74.080876380590425, -0.827040193770175 ], [ -74.080874573608753, -1.188786059427725 ], [ -74.61995443423649, -1.188735593422425 ], [ -74.619896558462059, -0.827006000329036 ], [ -74.619860135201947, -0.465275882935925 ], [ -75.158793733172374, -0.465216196885078 ], [ -75.562933394719295, -0.465144041449305 ], [ -75.562888706025973, -0.103519677589376 ], [ -75.562888706096572, -0.103517856246423 ], [ -76.002901630645511, -0.103538938615946 ], [ -76.541817668337615, -0.103556014039384 ], [ -77.080781496248221, -0.103563546303116 ], [ -77.080783371916411, 0.258182165414607 ], [ -77.619751327704705, 0.258167916793346 ], [ -77.619778990682732, 0.619897014821487 ], [ -78.158724389725208, 0.619811607948846 ], [ -78.562872900126564, 0.619711549227019 ], [ -78.563004246289864, 0.981317425984726 ], [ -79.002649490880813, 0.981486851243508 ], [ -79.002514662496893, 1.343165643704442 ], [ -79.54157487724494, 1.343341716391786 ], [ -79.541487133574293, 1.705067489426054 ], [ -79.541378099769545, 2.066791744384051 ], [ -79.002117077550238, 2.066519213508495 ], [ -79.001854242265438, 2.428193400833659 ], [ -79.001548645229903, 2.789865463513874 ], [ -78.564543807394003, 2.789382151798867 ], [ -78.56454385900193, 2.789425973596625 ], [ -78.159943752470213, 2.78987131113404 ], [ -77.620395774150964, 2.79024788080914 ], [ -77.080799279967621, 2.790376060146506 ], [ -76.54120256130463, 2.790255793031825 ], [ -76.001653909647757, 2.789887133555606 ], [ -75.564648071760757, 2.789404154042198 ], [ -75.564648123401795, 2.789447975940315 ], [ -75.160047086237512, 2.789893621950847 ], [ -74.620497858712199, 2.790270600764944 ] ] ] ] } },
{ "type": "Feature", "properties": { "ZONA_TRANS": "R6", "DeltaX": 302.934, "DeltaY": 307.805, "DeltaZ": -312.121, "FactorE": 3.74656e-06, "RX": 3.329153e-05, "RY": -4.001009e-05, "RZ": -4.507205e-05, "X0": 1558280.49, "Y0": -6167355.092, "Z0": 491954.2193, "DeltaLat": -10.023, "DeltaLon": 11.969 }, "geometry": { "type": "MultiPolygon", "coordinates": [ [ [ [ -75.162817732460041, 4.959871233391352 ], [ -74.621893109943912, 4.960540437306824 ], [ -74.621606264672181, 4.598837432760448 ], [ -74.621341206153076, 4.237130589177193 ], [ -74.621097882076612, 3.875420194967738 ], [ -74.620876244495904, 3.513706539099814 ], [ -74.620676249803878, 3.151989911051587 ], [ -74.620497858712199, 2.790270600764944 ], [ -75.160047086237512, 2.789893621950847 ], [ -75.552101478963706, 2.789461794768941 ], [ -75.552101576694668, 2.789390288341376 ], [ -76.001653909647757, 2.789887133555606 ], [ -76.54120256130463, 2.790255793031825 ], [ -77.080799279967621, 2.790376060146506 ], [ -77.620395774150964, 2.79024788080914 ], [ -78.159943752470213, 2.78987131113404 ], [ -78.160297238815886, 3.151541177332147 ], [ -77.620573892769769, 3.151966352096359 ], [ -77.620773610779196, 3.513682141499439 ], [ -77.62099496744095, 3.875394959113315 ], [ -77.621238006334579, 4.237104515496611 ], [ -77.621502775378517, 4.598810521718361 ], [ -77.621789326853474, 4.960512689404625 ], [ -77.080816831496406, 4.960738882704593 ], [ -76.539844106805148, 4.960522412514415 ], [ -75.998920057349167, 4.959863375884304 ], [ -75.56844940545399, 4.959016122685771 ], [ -75.568449541652456, 4.959079066999153 ], [ -75.162817732460041, 4.959871233391352 ] ] ] ] } },
{ "type": "Feature", "properties": { "ZONA_TRANS": "R4", "DeltaX": 306.666, "DeltaY": 315.063, "DeltaZ": -318.837, "FactorE": -1.389912e-05, "RX": -7.992173e-05, "RY": -8.0907e-06, "RZ": 0.0001051699, "X0": 1845222.398, "Y0": -6058604.945, "Z0": 769132.398, "DeltaLat": -10.085, "DeltaLon": 12.561 }, "geometry": { "type": "MultiPolygon", "coordinates": [ [ [ [ -74.080919343897961, 4.960767074179801 ], [ -74.080922921733929, 5.322482346412433 ], [ -74.080926606877313, 5.684193223080607 ], [ -74.080930399812559, 6.045899419002883 ], [ -74.080934301046284, 6.407600649746791 ], [ -74.080938311107673, 6.769296631675271 ], [ -74.080942430548646, 7.130987081992997 ], [ -74.080946659944104, 7.492671718792519 ], [ -74.080950999892096, 7.85435026110029 ], [ -74.080955451014262, 8.216022428922459 ], [ -74.080960013956002, 8.577687943290568 ], [ -74.080964689386775, 8.939346526307016 ], [ -74.080969478000426, 9.300997901190311 ], [ -74.080974380515528, 9.662641792320214 ], [ -73.534311884914288, 9.662214983982944 ], [ -72.987700612079252, 9.660919985352242 ], [ -72.988839396807876, 9.299341919987247 ], [ -72.533882294910384, 9.297666417095058 ], [ -72.535432770913999, 8.936147062460931 ], [ -72.536917886881596, 8.574942572722966 ], [ -72.171039082631211, 8.576173976867588 ], [ -72.170026404573264, 8.214573705804803 ], [ -72.169058721485442, 7.852966665679515 ], [ -72.168135838666799, 7.491353140809791 ], [ -71.624615107833236, 7.492366124969675 ], [ -71.624173604662019, 7.130697148478148 ], [ -71.623754383250187, 6.769022332778661 ], [ -71.623357359875612, 6.407341961124874 ], [ -71.622982455405037, 6.045656317650479 ], [ -71.622629595254949, 5.683965687323466 ], [ -71.62229870935515, 5.322270355900275 ], [ -71.621989732114329, 4.960570609879774 ], [ -72.162915665472397, 4.959900973096015 ], [ -72.548320988825196, 4.959147997479374 ], [ -72.548321327368683, 4.959005741908276 ], [ -72.999020000112495, 4.959892443773635 ], [ -73.539945339018573, 4.960551044018644 ], [ -74.080919343897961, 4.960767074179801 ] ] ] ] } },
{ "type": "Feature", "properties": { "ZONA_TRANS": "R5", "DeltaX": 307.871, "DeltaY": 305.803, "DeltaZ": -311.992, "FactorE": 2.18166e-06, "RX": -4.216368e-05, "RY": -2.030416e-05, "RZ": -6.209624e-05, "X0": 1594396.206, "Y0": -6143812.398, "Z0": 648855.829, "DeltaLat": -9.946, "DeltaLon": 12.159 }, "geometry": { "type": "MultiPolygon", "coordinates": [ [ [ [ -75.576878588632979, 7.851625199991518 ], [ -75.576878753653574, 7.851672305210644 ], [ -75.168958341003972, 7.852930046510336 ], [ -74.624979934403456, 7.853991879622318 ], [ -74.080950999892096, 7.85435026110029 ], [ -74.080946659944104, 7.492671718792519 ], [ -74.080942430548646, 7.130987081992997 ], [ -74.080938311107673, 6.769296631675271 ], [ -74.080934301046284, 6.407600649746791 ], [ -74.080930399812559, 6.045899419002883 ], [ -74.080926606877313, 5.684193223080607 ], [ -74.080922921733929, 5.322482346412433 ], [ -74.080919343897961, 4.960767074179801 ], [ -74.621893109943912, 4.960540437306824 ], [ -75.162817732460041, 4.959871233391352 ], [ -75.548222127391711, 4.959118568451703 ], [ -75.548222466047946, 4.958976313218799 ], [ -75.998920057349167, 4.959863375884304 ], [ -76.539844106805148, 4.960522412514415 ], [ -77.080816831496406, 4.960738882704593 ], [ -77.621789326853474, 4.960512689404625 ], [ -77.62209771742765, 5.322210730784997 ], [ -77.622428008184571, 5.683904358738991 ], [ -77.622780264652633, 6.045593286842342 ], [ -77.623154556837392, 6.407277229413127 ], [ -77.623550959255667, 6.768955901557791 ], [ -78.16621772009907, 6.768042289797772 ], [ -78.16705091338217, 7.12966624181033 ], [ -78.167928536643728, 7.491284282226077 ], [ -78.168850765783205, 7.852896124869039 ], [ -77.624873641535459, 7.853957459286872 ], [ -77.08084599973067, 7.854315346721298 ], [ -76.536818119451539, 7.853969627639461 ], [ -75.992840279895816, 7.852920457615224 ], [ -75.576878588632979, 7.851625199991518 ] ] ] ] } },
{ "type": "Feature", "properties": { "ZONA_TRANS": "R2", "DeltaX": 308.833, "DeltaY": 282.519, "DeltaZ": -314.571, "FactorE": -1.356561e-05, "RX": -4.471845e-05, "RY": 1.175087e-05, "RZ": -4.027981e-05, "X0": 1625036.59, "Y0": -6054644.061, "Z0": 1172969.151, "DeltaLat": -9.879, "DeltaLon": 12.19 }, "geometry": { "type": "MultiPolygon", "coordinates": [ [ [ [ -75.587483629896838, 10.382376029712335 ], [ -75.589250568841734, 10.743844693746603 ], [ -75.591081676189205, 11.105329332089083 ], [ -75.179302591280333, 11.107118395530819 ], [ -74.630175319467227, 11.108628310285697 ], [ -74.630868443430089, 11.47021380459878 ], [ -74.081000628534355, 11.470739431881162 ], [ -73.531132547994559, 11.470230209166221 ], [ -73.530426969739892, 11.83180688211575 ], [ -72.979900730081525, 11.830212923602586 ], [ -72.981317160111089, 11.468686368250108 ], [ -72.982686643844602, 11.107150539942149 ], [ -72.984009463866826, 10.745605712071507 ], [ -72.98528589234482, 10.384052159403712 ], [ -72.986516191167524, 10.022490158035351 ], [ -72.987700612079252, 9.660919985352242 ], [ -73.534311884914288, 9.662214983982944 ], [ -74.080974380515528, 9.662641792320214 ], [ -74.080969478000426, 9.300997901190311 ], [ -74.627059745213401, 9.300573028039722 ], [ -75.173098540427787, 9.299313040847036 ], [ -75.533778041093171, 9.29799817670772 ], [ -75.533779700767397, 9.297626716307223 ], [ -75.988735689232797, 9.299302638973913 ], [ -76.534773921493539, 9.300548697918467 ], [ -76.534206504735835, 9.662175371991372 ], [ -75.987596562772225, 9.660879858242737 ], [ -75.986411795647001, 10.022449185760003 ], [ -75.985181146088337, 10.384010342927155 ], [ -75.587483629896838, 10.382376029712335 ] ] ] ] } },
{ "type": "Feature", "properties": { "ZONA_TRANS": "R1", "DeltaX": 300.449, "DeltaY": 293.757, "DeltaZ": -317.306, "FactorE": -2.081615e-05, "RX": 6.018581e-05, "RY": -1.450002e-05, "RZ": -0.0001892455, "X0": 1891881.173, "Y0": -5961263.267, "Z0": 1248403.057, "DeltaLat": -9.866, "DeltaLon": 12.405 }, "geometry": { "type": "MultiPolygon", "coordinates": [ [ [ [ -72.595043338536726, 11.828414264974526 ], [ -72.597068732909932, 12.189773684584123 ], [ -72.183690358319566, 12.191742632411902 ], [ -72.185213629941245, 12.553250004662269 ], [ -71.633193942815794, 12.554962538163206 ], [ -71.081119985348266, 12.555539638119717 ], [ -71.081113770265517, 12.193964529751668 ], [ -71.081107680480443, 11.832379778532014 ], [ -71.08110171501599, 11.470785649231082 ], [ -71.630970913160766, 11.470259484854592 ], [ -71.630277426268208, 11.108673137487617 ], [ -72.179406066281175, 11.107162685451186 ], [ -72.178072159736615, 10.745617666604101 ], [ -72.527031018436375, 10.744149875401314 ], [ -72.527033541948143, 10.743663555949329 ], [ -72.528843442647599, 10.382176881467098 ], [ -72.530587966275746, 10.020681611328806 ], [ -72.532267469527909, 9.659178028487588 ], [ -72.987700612079252, 9.660919985352242 ], [ -72.986516191167524, 10.022490158035351 ], [ -72.98528589234482, 10.384052159403712 ], [ -72.984009463866826, 10.745605712071507 ], [ -72.982686643844602, 11.107150539942149 ], [ -72.981317160111089, 11.468686368250108 ], [ -72.979900730081525, 11.830212923602586 ], [ -72.595043338536726, 11.828414264974526 ] ], [ [ -72.527033541948143, 10.743663555949329 ], [ -72.584543421347306, 10.743907970390937 ], [ -72.584543421347348, 10.743907970390937 ], [ -72.527033541948143, 10.743663555949329 ] ] ] ] } },
{ "type": "Feature", "properties": { "ZONA_TRANS": "R3", "DeltaX": 311.118, "DeltaY": 289.167, "DeltaZ": -310.641, "FactorE": -5.77188e-06, "RX": -8.358815e-05, "RY": -3.057474e-05, "RZ": 7.57304e-06, "X0": 1555622.801, "Y0": -6105353.313, "Z0": 991255.656, "DeltaLat": -9.838, "DeltaLon": 12.199 }, "geometry": { "type": "MultiPolygon", "coordinates": [ [ [ [ -74.627059745213401, 9.300573028039722 ], [ -74.080969478000426, 9.300997901190311 ], [ -74.080964689386775, 8.939346526307016 ], [ -74.080960013956002, 8.577687943290568 ], [ -74.080955451014262, 8.216022428922459 ], [ -74.080950999892096, 7.85435026110029 ], [ -74.624979934403456, 7.853991879622318 ], [ -75.168958341003972, 7.852930046510336 ], [ -75.539598851358988, 7.851787248266527 ], [ -75.539599897307426, 7.851509120895288 ], [ -75.992840279895816, 7.852920457615224 ], [ -76.536818119451539, 7.853969627639461 ], [ -77.08084599973067, 7.854315346721298 ], [ -77.624873641535459, 7.853957459286872 ], [ -77.625359321613672, 8.2156122181605 ], [ -77.62586755354333, 8.577260295565141 ], [ -77.626398439760862, 8.938901412294735 ], [ -77.08085868273669, 8.93930910314567 ], [ -76.535318682978968, 8.938914508952294 ], [ -76.534773921493539, 9.300548697918467 ], [ -75.988735689232797, 9.299302638973913 ], [ -75.58256300302007, 9.297806416391067 ], [ -75.58256306131635, 9.29782033314093 ], [ -75.173098540427787, 9.299313040847036 ], [ -74.627059745213401, 9.300573028039722 ] ] ] ] } },
{ "type": "Feature", "properties": { "ZONA_TRANS": "R5", "DeltaX": 307.871, "DeltaY": 305.803, "DeltaZ": -311.992, "FactorE": 2.18166e-06, "RX": -4.216368e-05, "RY": -2.030416e-05, "RZ": -6.209624e-05, "X0": 1594396.206, "Y0": -6143812.398, "Z0": 648855.829, "DeltaLat": -9.946, "DeltaLon": 12.159 }, "geometry": { "type": "MultiPolygon", "coordinates": [ [ [ [ -84.163095173339272, 5.321444573266647 ], [ -83.621869203351395, 5.322161238663361 ], [ -83.080593983583555, 5.322402881118222 ], [ -82.539318554510061, 5.322169393601119 ], [ -81.998091956702098, 5.321460880604304 ], [ -81.56907225071987, 5.320554154781822 ], [ -81.569072399624972, 5.320618127138914 ], [ -81.163213873833428, 5.32146753737627 ], [ -80.621986750935477, 5.322184681546164 ], [ -80.080710367242332, 5.322426799738318 ], [ -80.080713443019164, 5.684136026257619 ], [ -79.539109934914734, 5.683886902190695 ], [ -79.53876434310159, 6.045575320843825 ], [ -79.538396918911914, 6.407258755145786 ], [ -78.996123233197636, 6.406404700683824 ], [ -78.995341374783052, 6.768034069519905 ], [ -78.573154972489192, 6.766900085696983 ], [ -78.57315515227549, 6.766960100772732 ], [ -78.574299060865997, 7.128525750159421 ], [ -78.16705091338217, 7.12966624181033 ], [ -78.16621772009907, 6.768042289797772 ], [ -77.623550959255667, 6.768955901557791 ], [ -77.623154556837392, 6.407277229413127 ], [ -77.622780264652633, 6.045593286842342 ], [ -77.622428008184571, 5.683904358738991 ], [ -77.62209771742765, 5.322210730784997 ], [ -77.621789326853474, 4.960512689404625 ], [ -78.16271268841281, 4.959843932504086 ], [ -78.548116190859673, 4.95909158816236 ], [ -78.548116529632324, 4.958949333254795 ], [ -78.998813081875952, 4.959836768341388 ], [ -79.539735893337067, 4.960496255067609 ], [ -80.080707389933522, 4.960713178738545 ], [ -80.621678667323351, 4.960487442200096 ], [ -81.162600821265784, 4.959819145235943 ], [ -81.548003469609313, 4.959067130534374 ], [ -81.548003808501761, 4.958924875938395 ], [ -81.998699366919553, 4.959812694046296 ], [ -82.539620995232781, 4.960472643346026 ], [ -83.080591319192408, 4.960690032706577 ], [ -83.621561434673538, 4.960464764866289 ], [ -84.162482437647398, 4.959796939499422 ], [ -84.568111552934937, 4.959005813069349 ], [ -84.568952841802314, 5.320595524032656 ], [ -84.163095173339272, 5.321444573266647 ] ] ] ] } },
{ "type": "Feature", "properties": { "ZONA_TRANS": "R1", "DeltaX": 300.449, "DeltaY": 293.757, "DeltaZ": -317.306, "FactorE": -2.081615e-05, "RX": 6.018581e-05, "RY": -1.450002e-05, "RZ": -0.0001892455, "X0": 1891881.173, "Y0": -5961263.267, "Z0": 1248403.057, "DeltaLat": -9.866, "DeltaLon": 12.405 }, "geometry": { "type": "MultiPolygon", "coordinates": [ [ [ [ -69.963186883010607, 15.444966152246842 ], [ -69.584544014235178, 15.442667639855726 ], [ -69.199261004482508, 15.444981110595425 ], [ -69.197342659200771, 15.083560985287518 ], [ -69.195474962507191, 14.722128931470417 ], [ -69.502786506832535, 14.720367859324476 ], [ -69.502793357819357, 14.719425586831655 ], [ -69.505349819398859, 14.358050892643691 ], [ -69.507835990583743, 13.996664579244168 ], [ -69.970499959558893, 13.999215732434818 ], [ -69.972204223609054, 13.637749611612392 ], [ -69.973859623145088, 13.27627260723683 ], [ -69.975466506480601, 12.914784983643015 ], [ -70.528269381233784, 12.916529523036848 ], [ -70.529045745290659, 12.554981042494019 ], [ -70.52979823953298, 12.19342261125375 ], [ -71.081113770265517, 12.193964529751668 ], [ -71.081119985348266, 12.555539638119717 ], [ -71.633193942815794, 12.554962538163206 ], [ -72.185213629941245, 12.553250004662269 ], [ -72.183690358319566, 12.191742632411902 ], [ -72.519128815085168, 12.190144913081399 ], [ -72.519132527543732, 12.189518682438367 ], [ -72.521207793772788, 11.828069194745394 ], [ -72.979900730081525, 11.830212923602586 ], [ -72.978437060608101, 12.191729934020735 ], [ -72.976925847828412, 12.553237128980729 ], [ -72.975366777007864, 12.914734239454425 ], [ -72.973759522375303, 13.276220997949745 ], [ -72.972103746952712, 13.63769713855071 ], [ -72.970399102377499, 13.999162396957141 ], [ -72.968645228718515, 14.360616510524027 ], [ -72.966841754284417, 14.722059218300499 ], [ -72.964988295425286, 15.083490261068489 ], [ -72.584452141103029, 15.081232640286309 ], [ -72.197242651302005, 15.083504269634458 ], [ -71.6392334371712, 15.085575868277235 ], [ -71.081167087637581, 15.086273493759824 ], [ -71.081174343911641, 15.447762123283791 ], [ -70.522152117106913, 15.447068378190666 ], [ -69.963186883010607, 15.444966152246842 ] ] ] ] } },
{ "type": "Feature", "properties": { "ZONA_TRANS": "R2", "DeltaX": 308.833, "DeltaY": 282.519, "DeltaZ": -314.571, "FactorE": -1.356561e-05, "RX": -4.471845e-05, "RY": 1.175087e-05, "RZ": -4.027981e-05, "X0": 1625036.59, "Y0": -6054644.061, "Z0": 1172969.151, "DeltaLat": -9.879, "DeltaLon": 12.19 }, "geometry": { "type": "MultiPolygon", "coordinates": [ [ [ [ -74.08106215489525, 15.086218756002522 ], [ -73.522996952186958, 15.085541494709167 ], [ -72.964988295425286, 15.083490261068489 ], [ -72.966841754284417, 14.722059218300499 ], [ -72.968645228718515, 14.360616510524027 ], [ -72.970399102377499, 13.999162396957141 ], [ -72.972103746952712, 13.63769713855071 ], [ -72.973759522375303, 13.276220997949745 ], [ -72.975366777007864, 12.914734239454425 ], [ -72.976925847828412, 12.553237128980729 ], [ -72.978437060608101, 12.191729934020735 ], [ -72.979900730081525, 11.830212923602586 ], [ -73.530426969739892, 11.83180688211575 ], [ -73.531132547994559, 11.470230209166221 ], [ -74.081000628534355, 11.470739431881162 ], [ -74.630868443430089, 11.47021380459878 ], [ -74.630175319467227, 11.108628310285697 ], [ -75.179302591280333, 11.107118395530819 ], [ -75.525050774993517, 11.105616213807686 ], [ -75.525053562597407, 11.105097406000858 ], [ -75.526929567630432, 10.743620456191472 ], [ -75.528739820024072, 10.382134630021302 ], [ -75.985181146088337, 10.384010342927155 ], [ -75.986411795647001, 10.022449185760003 ], [ -75.987596562772225, 9.660879858242737 ], [ -76.534206504735835, 9.662175371991372 ], [ -76.534773921493539, 9.300548697918467 ], [ -76.535318682978968, 8.938914508952294 ], [ -77.08085868273669, 8.93930910314567 ], [ -77.626398439760862, 8.938901412294735 ], [ -77.626952087520564, 9.300535290249041 ], [ -77.627528608948282, 9.662161652478238 ], [ -77.628128121097816, 10.023780223227284 ], [ -77.628750746010013, 10.385390727980099 ], [ -77.629396610774521, 10.746992893503435 ], [ -77.630065847594423, 11.108586447890644 ], [ -77.630758593853727, 11.470171120605025 ], [ -78.180571866082161, 11.468611446446657 ], [ -78.181999105819841, 11.830136527152707 ], [ -78.183473818819053, 12.191652062015047 ], [ -78.518910638015285, 12.190055040551565 ], [ -78.518914351790571, 12.18942881277628 ], [ -78.58429920093613, 12.189743729003427 ], [ -78.596850176419906, 12.189683974638154 ], [ -78.596850871748458, 12.189804182398881 ], [ -78.978216645352106, 12.191641004825346 ], [ -78.979681077984949, 11.83012563984717 ], [ -79.530204659814885, 11.831720726121349 ], [ -79.530911000386737, 11.470145687646244 ], [ -79.531593911293939, 11.108561500450405 ], [ -79.532253533568692, 10.746968433596416 ], [ -80.080767116475897, 10.747445679732589 ], [ -80.629280460021747, 10.746954899619238 ], [ -81.177741232864804, 10.745496314539857 ], [ -81.526697609617187, 10.744029585307688 ], [ -81.526700134613264, 10.743543269145096 ], [ -81.5842096046633, 10.743787855742458 ], [ -81.589020846449401, 10.743767633590316 ], [ -81.589021052449098, 10.743808318783833 ], [ -81.983672813101165, 10.745486796625453 ], [ -82.532133073773849, 10.746932426163388 ], [ -82.531473060372591, 11.108524725133789 ], [ -82.53078975294666, 11.470108145443172 ], [ -82.530083010412866, 11.83168241806052 ], [ -82.529352686413091, 12.193247275411053 ], [ -82.528598629238601, 12.554802451418855 ], [ -82.527820681751351, 12.916347681549279 ], [ -82.527018681301897, 13.277882702851008 ], [ -82.526192459644193, 13.639407253997836 ], [ -82.525341842847027, 14.00092107533017 ], [ -82.524466651201848, 14.36242390889619 ], [ -82.523566699127272, 14.723915498492708 ], [ -82.522641795069816, 15.085395589705692 ], [ -81.964637172709317, 15.083342444766268 ], [ -81.584103791833854, 15.081083534399321 ], [ -81.196897123343859, 15.083353828059781 ], [ -80.638892007189483, 15.085423521718237 ], [ -80.639853529380758, 15.446892301668948 ], [ -80.640840636478146, 15.808349077320761 ], [ -80.641853540724483, 16.169793599805597 ], [ -80.080848046662439, 16.170541753206063 ], [ -80.080854371695338, 16.531991366381906 ], [ -79.518816008943759, 16.531244103707614 ], [ -78.956836136263263, 16.528984182766546 ], [ -78.958894505033925, 16.167603969971719 ], [ -78.584194933416697, 16.165224472352826 ], [ -78.202924353993367, 16.167616663562807 ], [ -78.20090477022147, 15.806223640505642 ], [ -78.198936652500066, 15.444818184350863 ], [ -78.497132686354135, 15.443028613613688 ], [ -78.49714075276097, 15.441977133564244 ], [ -78.499840683322802, 15.080628968341408 ], [ -78.502462349872729, 14.72021092463115 ], [ -78.195153135110857, 14.721970989889959 ], [ -78.193336926833211, 14.360529764730474 ], [ -77.637165158108303, 14.362496783740173 ], [ -77.080937163231653, 14.363158511776732 ], [ -77.080943330714888, 14.724668629330328 ], [ -76.523809823596579, 14.724007782446742 ], [ -75.966732430103903, 14.722007359013341 ], [ -75.584353031209076, 14.719791526581771 ], [ -75.195267980212677, 14.722020381991227 ], [ -75.197134858955764, 15.083450741956694 ], [ -74.63912706871011, 15.085521731449232 ], [ -74.08106215489525, 15.086218756002522 ] ] ] ] } }
]
}
